OBJECT_NAME,OBJECT_ID,EPOCH,MEAN_MOTION,ECCENTRICITY,INCLINATION,RA_OF_ASC_NODE,ARG_OF_PERICENTER,MEAN_ANOMALY,EPHEMERIS_TYPE,CLASSIFICATION_TYPE,NORAD_CAT_ID,ELEMENT_SET_NO,REV_AT_EPOCH,BSTAR,MEAN_MOTION_DOT,MEAN_MOTION_DDOT
STARLINK-3911,2022-051AJ,2025-07-20T22:29:16.405152,15.088351,0.0001551,53.2159,79.499,83.0905,277.0264,0,U,52565,999,17659,8.76E-05,1.11E-05,0
STARLINK-3938,2022-051AK,2025-07-20T23:07:02.182944,15.08837253,0.0001489,53.215,94.3831,88.1536,271.9627,0,U,52566,999,17639,8.30E-06,-1.56E-06,0
STARLINK-3929,2022-051AL,2025-07-20T22:18:40.758624,15.08835277,0.0001443,53.2163,79.5343,86.5581,273.5576,0,U,52567,999,17659,7.25E-05,8.65E-06,0
STARLINK-3930,2022-051AM,2025-07-21T09:10:28.577280,15.08842127,0.000134,53.2178,77.4996,89.7708,270.3438,0,U,52568,999,17673,8.58E-05,1.08E-05,0
STARLINK-3927,2022-051AN,2025-07-20T22:13:22.534464,15.08843942,0.0001534,53.214,79.5507,86.2792,273.8375,0,U,52569,999,17659,-3.39E-06,-3.42E-06,0
STARLINK-3901,2022-051AQ,2025-07-20T22:08:06.154944,15.08837026,0.0001428,53.2169,79.5663,80.6435,279.4719,0,U,52574,999,17666,2.50E-06,-2.48E-06,0
STARLINK-3920,2022-051AR,2025-07-20T22:12:43.203456,15.15540384,0.0001307,53.2181,79.0056,81.5685,278.5458,0,U,52575,999,17660,1.06E-04,1.72E-05,0
STARLINK-3932,2022-051AS,2025-07-20T21:42:58.043808,15.08833976,0.0001678,53.2188,79.6433,101.1551,258.9629,0,U,52576,999,17659,2.84E-05,1.65E-06,0
STARLINK-3836,2022-051AT,2025-07-20T22:56:26.108736,15.08837657,0.0001273,53.2168,94.4165,89.0314,271.0824,0,U,52577,999,17639,5.18E-05,5.36E-06,0
STARLINK-3833,2022-051AU,2025-07-20T23:01:44.298336,15.08837012,0.0001761,53.2171,94.3984,93.2485,266.8708,0,U,52578,999,17639,8.34E-05,1.04E-05,0
STARLINK-3893,2022-051AV,2025-07-20T22:45:50.482080,15.08836135,0.0001579,53.2191,94.4538,93.1992,266.9181,0,U,52579,999,17639,2.46E-06,-2.49E-06,0
STARLINK-3919,2022-051AW,2025-07-20T22:52:31.254528,15.08836362,0.0001488,53.218,94.4412,85.204,274.9122,0,U,52580,999,17639,3.30E-05,2.37E-06,0
STARLINK-3915,2022-051AX,2025-07-20T23:11:40.728768,15.08831072,0.0001287,53.2153,79.3645,93.1121,267.0018,0,U,52581,999,17660,-9.14E-06,-4.33E-06,0
STARLINK-3895,2022-051AZ,2025-07-20T23:06:22.626432,15.08833122,0.0001694,53.22,79.3828,87.8584,272.2602,0,U,52583,999,17660,4.48E-06,-2.17E-06,0
STARLINK-3952,2022-051B,2025-07-20T22:33:15.263136,15.08837802,0.0001506,53.2182,89.4893,86.2898,273.8267,0,U,52534,999,17719,1.14E-05,-1.07E-06,0
STARLINK-3922,2022-051BA,2025-07-21T08:49:17.044032,15.08826721,0.000147,53.2191,77.5646,85.9124,274.2036,0,U,52584,999,17673,1.86E-04,2.67E-05,0
STARLINK-3906,2022-051BB,2025-07-20T22:50:28.096512,15.08835051,0.000121,53.218,79.3946,90.0932,270.0199,0,U,52585,999,17660,8.18E-06,-1.58E-06,0
STARLINK-3910,2022-051BC,2025-07-20T23:01:04.442880,15.08837216,0.0001345,53.2178,79.3998,96.2027,263.9119,0,U,52586,999,17660,7.37E-05,8.85E-06,0
STARLINK-3867,2022-051BD,2025-07-20T22:30:38.164608,15.08853792,0.000159,53.2173,79.3515,84.6654,275.4519,0,U,52587,999,17660,1.08E-04,1.43E-05,0
STARLINK-3917,2022-051BE,2025-07-20T22:45:11.932992,15.08836221,0.0001176,53.2177,79.4529,92.0877,268.025,0,U,52588,999,17667,-9.48E-05,-1.80E-05,0
STARLINK-3958,2022-051C,2025-07-21T09:35:39.489504,15.08836608,0.0001482,53.2188,87.4212,85.6197,274.4964,0,U,52535,999,17659,1.92E-06,-2.57E-06,0
STARLINK-3964,2022-051D,2025-07-21T01:33:25.977600,15.0882899,0.0001458,53.2187,88.9254,98.3141,261.8016,0,U,52536,999,17654,3.70E-05,3.01E-06,0
STARLINK-3897,2022-051E,2025-07-20T21:50:49.507008,15.08832953,0.0001317,53.2174,89.4248,87.9198,272.1945,0,U,52537,999,17645,2.26E-05,7.20E-07,0
STARLINK-3933,2022-051F,2025-07-20T22:06:45.144576,15.08840905,0.0001269,53.2167,89.5668,94.9949,265.1188,0,U,52538,999,17645,5.39E-05,5.71E-06,0
STARLINK-3757,2022-051G,2025-07-21T09:19:45.836544,15.08838855,0.0001283,53.2176,87.4684,90.7979,269.316,0,U,52539,999,17659,6.09E-05,6.81E-06,0
STARLINK-3940,2022-051H,2025-07-20T21:56:09.779712,15.08836228,0.0001287,53.2176,89.6394,91.7205,268.3935,0,U,52540,999,17645,3.11E-05,2.08E-06,0
STARLINK-3845,2022-051J,2025-07-20T22:40:32.460096,15.08836911,0.0001461,53.2177,94.4655,96.5919,263.5239,0,U,52541,999,17638,2.66E-05,1.35E-06,0
STARLINK-3937,2022-051K,2025-07-20T23:20:56.662656,15.08832449,0.0000911,53.2168,89.3395,110.7643,249.3447,0,U,52542,999,17653,1.23E-04,1.68E-05,0
STARLINK-3926,2022-051L,2025-07-20T22:01:27.627168,15.08834962,0.0001378,53.2176,89.5848,92.5434,267.5715,0,U,52543,999,17645,4.06E-05,3.58E-06,0
STARLINK-3944,2022-051M,2025-07-21T09:37:36.158880,15.08862871,0.0001286,53.2183,92.4253,90.3626,269.7514,0,U,52544,999,17652,2.34E-04,3.44E-05,0
STARLINK-3948,2022-051P,2025-07-20T22:39:53.580096,15.08831247,0.0001438,53.2155,89.2347,94.3123,265.8033,0,U,52546,999,17646,4.62E-05,4.47E-06,0
STARLINK-3931,2022-051R,2025-07-20T22:49:09.170112,15.08836109,0.0001329,53.2156,89.4373,88.5092,271.6052,0,U,52548,999,17646,-1.27E-05,-4.89E-06,0
STARLINK-3935,2022-051S,2025-07-21T02:26:25.031904,15.08839388,0.0001713,53.2175,88.7595,91.8219,268.297,0,U,52549,999,17655,-6.41E-05,-1.31E-05,0
STARLINK-3965,2022-051T,2025-07-20T22:59:44.951424,15.08829941,0.0001365,53.2151,89.4066,92.3577,267.7572,0,U,52550,999,17646,1.77E-04,2.52E-05,0
STARLINK-3969,2022-051U,2025-07-20T23:10:20.768160,15.08834994,0.0001427,53.2181,89.3735,89.3541,270.7614,0,U,52551,999,17646,2.23E-05,6.80E-07,0
STARLINK-3966,2022-051V,2025-07-20T23:05:04.380864,15.08833581,0.0001493,53.2182,89.5441,91.6786,268.4377,0,U,52552,999,17646,3.73E-05,3.06E-06,0
STARLINK-3858,2022-051W,2025-07-21T09:24:59.832288,15.08838132,0.0001457,53.218,87.1134,87.0627,273.0532,0,U,52553,999,17660,4.72E-05,4.63E-06,0
STARLINK-3770,2022-051X,2025-07-20T22:24:38.398464,15.08837052,0.00014,53.2181,94.512,89.4118,270.7035,0,U,52554,999,17638,3.89E-05,3.31E-06,0
STARLINK-3949,2022-051Y,2025-07-21T14:00:01.000224,15.80191949,0.0003276,53.2166,3.0211,230.9642,291.7144,0,U,52555,999,17781,1.10E-03,2.15E-03,0
STARLINK-3763,2022-051Z,2025-07-21T06:06:33.970176,15.41779664,0.0002024,53.189,29.6575,94.1894,265.9343,0,U,52556,999,17740,7.19E-04,3.06E-04,0
STARLINK-4019,2022-052A,2025-07-21T02:50:55.514976,15.08837098,0.000124,53.2168,243.686,87.0247,273.0887,0,U,52598,999,17619,1.28E-05,-8.40E-07,0
STARLINK-4008,2022-052AA,2025-07-21T03:01:31.279872,15.08838441,0.0001155,53.2167,243.6528,84.2733,275.8391,0,U,52622,999,17620,3.33E-05,2.42E-06,0
STARLINK-3986,2022-052AB,2025-07-20T11:49:24.664512,15.08839429,0.000084,53.2162,231.4958,87.1368,272.9721,0,U,52623,999,17593,1.05E-04,1.38E-05,0
STARLINK-3988,2022-052AD,2025-07-21T08:24:06.408288,15.08838629,0.0000963,53.2165,227.6465,79.9587,280.1514,0,U,52625,999,17644,4.06E-05,3.58E-06,0
STARLINK-3990,2022-052AE,2025-07-20T08:49:13.274400,15.08839247,0.0001054,53.2165,232.0572,74.7276,285.3833,0,U,52626,999,17591,-4.11E-06,-3.53E-06,0
STARLINK-3992,2022-052AF,2025-07-21T01:46:40.101600,15.08839071,0.0001091,53.2159,228.8825,79.7344,280.3771,0,U,52627,999,17640,3.19E-05,2.21E-06,0
STARLINK-4001,2022-052AG,2025-07-21T09:17:45.902976,15.0884434,0.0001208,53.2164,242.4797,64.9199,295.1919,0,U,52628,999,17624,5.68E-05,6.16E-06,0
STARLINK-4022,2022-052AH,2025-07-21T01:36:05.669856,15.08836705,0.0001408,53.2159,228.8791,89.5654,270.5499,0,U,52629,999,17640,-2.47E-05,-6.82E-06,0
STARLINK-3989,2022-052AJ,2025-07-21T05:08:02.194656,15.0883963,0.0000938,53.2164,228.2574,82.9288,277.1811,0,U,52630,999,17642,1.67E-05,-2.20E-07,0
STARLINK-3794,2022-052AK,2025-07-20T19:15:54.865440,15.0883634,0.0001026,53.2161,230.1111,80.5418,279.569,0,U,52631,999,17599,6.97E-06,-1.77E-06,0
STARLINK-3995,2022-052AL,2025-07-21T05:02:44.748096,15.08842055,0.0001022,53.2162,228.2729,80.7985,279.3123,0,U,52632,999,17642,6.16E-05,6.92E-06,0
STARLINK-3994,2022-052AM,2025-07-21T10:52:29.612928,15.08846886,0.000129,53.2157,227.1813,63.1079,297.0045,0,U,52633,999,17646,7.03E-05,8.32E-06,0
STARLINK-3974,2022-052AN,2025-07-21T01:41:22.608384,15.08837691,0.0001472,53.2161,228.9275,61.6928,298.4213,0,U,52634,999,17640,2.99E-05,1.87E-06,0
STARLINK-3978,2022-052AP,2025-07-20T10:36:32.143680,15.08837815,0.0000913,53.2156,221.7217,74.0836,286.0256,0,U,52635,999,17607,3.42E-05,2.57E-06,0
STARLINK-3967,2022-052AQ,2025-07-21T07:52:18.948576,15.08847301,0.0001141,53.2158,227.7459,78.8164,281.2956,0,U,52636,999,17644,1.27E-05,-8.60E-07,0
STARLINK-3961,2022-052AR,2025-07-20T10:31:13.978272,15.08838843,0.0000945,53.2166,221.74,75.7589,284.3508,0,U,52637,999,17687,4.49E-05,4.27E-06,0
STARLINK-3941,2022-052AS,2025-07-20T19:03:56.192832,15.08837261,0.0001126,53.2163,230.1393,83.2682,276.8439,0,U,52638,999,17679,5.75E-06,-1.96E-06,0
STARLINK-3968,2022-052AT,2025-07-21T10:06:07.734240,15.08836665,0.0001037,53.2167,217.3288,73.3783,286.7323,0,U,52639,999,17659,1.88E-05,1.10E-07,0
STARLINK-3977,2022-052AU,2025-07-20T18:38:46.199040,15.08839189,0.0001067,53.2161,220.2458,77.9805,282.1306,0,U,52640,999,17611,3.45E-05,2.61E-06,0
STARLINK-3991,2022-052AV,2025-07-21T05:42:34.267104,15.08840697,0.0001005,53.2162,218.3503,56.7676,303.3413,0,U,52641,999,17656,1.66E-05,-2.40E-07,0
STARLINK-3971,2022-052AW,2025-07-21T00:44:24.690048,15.08835284,0.0001176,53.2158,219.0806,72.9531,287.159,0,U,52642,999,17653,1.47E-05,-5.40E-07,0
STARLINK-3963,2022-052AX,2025-07-21T04:54:50.510592,15.08837089,0.0001071,53.2166,218.2703,83.2088,276.9026,0,U,52643,999,17656,3.40E-05,2.53E-06,0
STARLINK-3985,2022-052AY,2025-07-20T18:17:34.043712,15.0883811,0.0000963,53.2164,220.2856,72.0441,288.0656,0,U,52644,999,17611,5.19E-05,5.39E-06,0
STARLINK-3973,2022-052AZ,2025-07-20T18:01:40.931616,15.08837992,0.0001169,53.2163,220.4405,74.5491,285.563,0,U,52645,999,17611,1.95E-06,-2.57E-06,0
STARLINK-4024,2022-052B,2025-07-20T20:11:30.866208,15.08839532,0.0000942,53.2166,240.036,81.0673,279.0426,0,U,52599,999,17665,1.25E-05,-8.90E-07,0
STARLINK-3832,2022-052BA,2025-07-20T18:06:58.621824,15.0883392,0.0001219,53.2163,220.3573,79.3164,280.7965,0,U,52646,999,17612,-3.59E-06,-3.45E-06,0
